ONEWEB-0228             
1 48780U 21045P   23307.88091182 -.00000065  00000+0 -20622-3 0  9998
2 48780  87.8962  89.5692 0001489  89.7247 270.4054 13.15549338118595
